{"fetched_at":"2026-07-10T18:08:17.543Z","source":"https://celestrak.org/NORAD/elements/gp.php?NAME=JILIN&FORMAT=JSON","constellation":"jilin-1-gaofen","records":[{"OBJECT_NAME":"JILIN-1 GAOFEN 03D51","OBJECT_ID":"2022-155B","EPOCH":"2026-07-10T07:59:59.370720","CLASSIFICATION_TYPE":"U","MEAN_MOTION":15.64486049,"ECCENTRICITY":0.00041262,"INCLINATION":97.6244,"RA_OF_ASC_NODE":337.9627,"ARG_OF_PERICENTER":249.5033,"MEAN_ANOMALY":110.5782,"EPHEMERIS_TYPE":0,"NORAD_CAT_ID":54252,"ELEMENT_SET_NO":999,"REV_AT_EPOCH":20336,"BSTAR":0.00046400821,"MEAN_MOTION_DOT":0.00044641,"MEAN_MOTION_DDOT":0},{"OBJECT_NAME":"JILIN-1 GAOFEN 03D53","OBJECT_ID":"2022-155C","EPOCH":"2026-07-10T06:42:16.544160","CLASSIFICATION_TYPE":"U","MEAN_MOTION":15.54199345,"ECCENTRICITY":0.00047283,"INCLINATION":97.6236,"RA_OF_ASC_NODE":333.1885,"ARG_OF_PERICENTER":273.026,"MEAN_ANOMALY":87.0452,"EPHEMERIS_TYPE":0,"NORAD_CAT_ID":54253,"ELEMENT_SET_NO":999,"REV_AT_EPOCH":20307,"BSTAR":0.00037743773,"MEAN_MOTION_DOT":0.00024522,"MEAN_MOTION_DDOT":0},{"OBJECT_NAME":"JILIN-1 GAOFEN 03D52","OBJECT_ID":"2022-155E","EPOCH":"2026-07-10T07:30:34.889184","CLASSIFICATION_TYPE":"U","MEAN_MOTION":15.61708807,"ECCENTRICITY":0.00034845,"INCLINATION":97.6217,"RA_OF_ASC_NODE":336.1754,"ARG_OF_PERICENTER":267.7748,"MEAN_ANOMALY":92.311,"EPHEMERIS_TYPE":0,"NORAD_CAT_ID":54255,"ELEMENT_SET_NO":999,"REV_AT_EPOCH":20331,"BSTAR":0.00043864944,"MEAN_MOTION_DOT":0.00037828,"MEAN_MOTION_DDOT":0},{"OBJECT_NAME":"JILIN-1 GAOFEN 03D50","OBJECT_ID":"2022-167J","EPOCH":"2026-07-10T08:08:49.128000","CLASSIFICATION_TYPE":"U","MEAN_MOTION":15.34996208,"ECCENTRICITY":0.00056254,"INCLINATION":97.6846,"RA_OF_ASC_NODE":0.1387,"ARG_OF_PERICENTER":37.1537,"MEAN_ANOMALY":323.0094,"EPHEMERIS_TYPE":0,"NORAD_CAT_ID":54690,"ELEMENT_SET_NO":999,"REV_AT_EPOCH":19890,"BSTAR":0.00023480418,"MEAN_MOTION_DOT":0.00007889,"MEAN_MOTION_DDOT":0},{"OBJECT_NAME":"JILIN-1 GAOFEN 03D47","OBJECT_ID":"2022-167L","EPOCH":"2026-07-10T08:11:10.093056","CLASSIFICATION_TYPE":"U","MEAN_MOTION":15.34281379,"ECCENTRICITY":0.0008176,"INCLINATION":97.6944,"RA_OF_ASC_NODE":1.8775,"ARG_OF_PERICENTER":45.0312,"MEAN_ANOMALY":315.1592,"EPHEMERIS_TYPE":0,"NORAD_CAT_ID":54692,"ELEMENT_SET_NO":999,"REV_AT_EPOCH":19889,"BSTAR":0.00023143564,"MEAN_MOTION_DOT":0.00007603,"MEAN_MOTION_DDOT":0},{"OBJECT_NAME":"JILIN-1 GAOFEN 03D49","OBJECT_ID":"2022-167N","EPOCH":"2026-07-10T07:16:45.038784","CLASSIFICATION_TYPE":"U","MEAN_MOTION":15.3796513,"ECCENTRICITY":0.0006351,"INCLINATION":97.6822,"RA_OF_ASC_NODE":2.4747,"ARG_OF_PERICENTER":63.7602,"MEAN_ANOMALY":296.4294,"EPHEMERIS_TYPE":0,"NORAD_CAT_ID":54694,"ELEMENT_SET_NO":999,"REV_AT_EPOCH":19904,"BSTAR":0.00024497662,"MEAN_MOTION_DOT":0.00009065,"MEAN_MOTION_DDOT":0},{"OBJECT_NAME":"JILIN-1 GAOFEN 03D48","OBJECT_ID":"2022-167P","EPOCH":"2026-07-10T08:01:24.026304","CLASSIFICATION_TYPE":"U","MEAN_MOTION":15.35725245,"ECCENTRICITY":0.00068494,"INCLINATION":97.6892,"RA_OF_ASC_NODE":1.8456,"ARG_OF_PERICENTER":45.7761,"MEAN_ANOMALY":314.4043,"EPHEMERIS_TYPE":0,"NORAD_CAT_ID":54695,"ELEMENT_SET_NO":999,"REV_AT_EPOCH":19894,"BSTAR":0.00023200215,"MEAN_MOTION_DOT":0.0000798,"MEAN_MOTION_DDOT":0},{"OBJECT_NAME":"JILIN GAOFEN OBJECT A","OBJECT_ID":"2026-080A","EPOCH":"2026-07-06T18:42:42.845184","CLASSIFICATION_TYPE":"U","MEAN_MOTION":15.09144054,"ECCENTRICITY":0.00119065,"INCLINATION":97.6601,"RA_OF_ASC_NODE":263.2709,"ARG_OF_PERICENTER":4.6722,"MEAN_ANOMALY":355.4615,"EPHEMERIS_TYPE":0,"NORAD_CAT_ID":68691,"ELEMENT_SET_NO":999,"REV_AT_EPOCH":1261,"BSTAR":0.00023333317,"MEAN_MOTION_DOT":0.00003644,"MEAN_MOTION_DDOT":0},{"OBJECT_NAME":"JILIN GAOFEN OBJECT B","OBJECT_ID":"2026-080B","EPOCH":"2026-07-10T06:36:38.732256","CLASSIFICATION_TYPE":"U","MEAN_MOTION":15.09079755,"ECCENTRICITY":0.00151528,"INCLINATION":97.6594,"RA_OF_ASC_NODE":266.7769,"ARG_OF_PERICENTER":331.4107,"MEAN_ANOMALY":28.6289,"EPHEMERIS_TYPE":0,"NORAD_CAT_ID":68692,"ELEMENT_SET_NO":999,"REV_AT_EPOCH":1314,"BSTAR":0.00022087583,"MEAN_MOTION_DOT":0.00003443,"MEAN_MOTION_DDOT":0},{"OBJECT_NAME":"JILIN GAOFEN OBJECT C","OBJECT_ID":"2026-080C","EPOCH":"2026-07-09T19:52:45.093216","CLASSIFICATION_TYPE":"U","MEAN_MOTION":15.09149988,"ECCENTRICITY":0.0012534,"INCLINATION":97.6596,"RA_OF_ASC_NODE":266.2999,"ARG_OF_PERICENTER":334.379,"MEAN_ANOMALY":25.6816,"EPHEMERIS_TYPE":0,"NORAD_CAT_ID":68693,"ELEMENT_SET_NO":999,"REV_AT_EPOCH":1307,"BSTAR":0.00026568244,"MEAN_MOTION_DOT":0.00004159,"MEAN_MOTION_DDOT":0},{"OBJECT_NAME":"JILIN GAOFEN OBJECT D","OBJECT_ID":"2026-080D","EPOCH":"2026-07-10T06:37:11.786304","CLASSIFICATION_TYPE":"U","MEAN_MOTION":15.08935513,"ECCENTRICITY":0.00168362,"INCLINATION":97.6659,"RA_OF_ASC_NODE":266.8479,"ARG_OF_PERICENTER":343.3981,"MEAN_ANOMALY":16.6694,"EPHEMERIS_TYPE":0,"NORAD_CAT_ID":68694,"ELEMENT_SET_NO":999,"REV_AT_EPOCH":1312,"BSTAR":0.00021358989,"MEAN_MOTION_DOT":0.00003315,"MEAN_MOTION_DDOT":0},{"OBJECT_NAME":"JILIN GAOFEN OBJECT E","OBJECT_ID":"2026-080E","EPOCH":"2026-07-10T06:12:08.640576","CLASSIFICATION_TYPE":"U","MEAN_MOTION":15.09227375,"ECCENTRICITY":0.00128581,"INCLINATION":97.6637,"RA_OF_ASC_NODE":266.8502,"ARG_OF_PERICENTER":355.4872,"MEAN_ANOMALY":4.6238,"EPHEMERIS_TYPE":0,"NORAD_CAT_ID":68695,"ELEMENT_SET_NO":999,"REV_AT_EPOCH":1310,"BSTAR":0.00018828018,"MEAN_MOTION_DOT":0.00002935,"MEAN_MOTION_DDOT":0},{"OBJECT_NAME":"JILIN GAOFEN OBJECT F","OBJECT_ID":"2026-080F","EPOCH":"2026-07-10T06:10:33.869280","CLASSIFICATION_TYPE":"U","MEAN_MOTION":15.09191587,"ECCENTRICITY":0.00139851,"INCLINATION":97.6608,"RA_OF_ASC_NODE":266.8197,"ARG_OF_PERICENTER":1.129,"MEAN_ANOMALY":358.9968,"EPHEMERIS_TYPE":0,"NORAD_CAT_ID":68696,"ELEMENT_SET_NO":999,"REV_AT_EPOCH":1310,"BSTAR":0.00018515055,"MEAN_MOTION_DOT":0.00002883,"MEAN_MOTION_DDOT":0},{"OBJECT_NAME":"JILIN GAOFEN OBJECT G","OBJECT_ID":"2026-080G","EPOCH":"2026-07-10T07:25:58.469664","CLASSIFICATION_TYPE":"U","MEAN_MOTION":15.09174287,"ECCENTRICITY":0.00138449,"INCLINATION":97.665,"RA_OF_ASC_NODE":266.9533,"ARG_OF_PERICENTER":353.4106,"MEAN_ANOMALY":6.6938,"EPHEMERIS_TYPE":0,"NORAD_CAT_ID":68697,"ELEMENT_SET_NO":999,"REV_AT_EPOCH":1311,"BSTAR":0.00020856147,"MEAN_MOTION_DOT":0.00003254,"MEAN_MOTION_DDOT":0},{"OBJECT_NAME":"JILIN GAOFEN OBJECT H","OBJECT_ID":"2026-080H","EPOCH":"2026-07-09T18:38:51.904896","CLASSIFICATION_TYPE":"U","MEAN_MOTION":15.09098681,"ECCENTRICITY":0.00146847,"INCLINATION":97.6641,"RA_OF_ASC_NODE":266.4127,"ARG_OF_PERICENTER":356.7299,"MEAN_ANOMALY":3.3831,"EPHEMERIS_TYPE":0,"NORAD_CAT_ID":68698,"ELEMENT_SET_NO":999,"REV_AT_EPOCH":1303,"BSTAR":0.00025188848,"MEAN_MOTION_DOT":0.00003937,"MEAN_MOTION_DDOT":0}]}
