JILIN-1 GAOFEN 03D51    
1 54252U 22155B   26191.33332605  .00044641  00000+0  46401-3 0  9993
2 54252  97.6244 337.9627 0004126 249.5033 110.5782 15.64486049203363
JILIN-1 GAOFEN 03D53    
1 54253U 22155C   26191.27935815  .00024522  00000+0  37744-3 0  9995
2 54253  97.6236 333.1885 0004728 273.0260  87.0452 15.54199345203070
JILIN-1 GAOFEN 03D52    
1 54255U 22155E   26191.31290381  .00037828  00000+0  43865-3 0  9998
2 54255  97.6217 336.1754 0003484 267.7748  92.3110 15.61708807203312
JILIN-1 GAOFEN 03D50    
1 54690U 22167J   26191.33945750  .00007889  00000+0  23480-3 0  9998
2 54690  97.6846   0.1387 0005625  37.1537 323.0094 15.34996208198904
JILIN-1 GAOFEN 03D47    
1 54692U 22167L   26191.34108904  .00007603  00000+0  23144-3 0  9994
2 54692  97.6944   1.8775 0008176  45.0312 315.1592 15.34281379198896
JILIN-1 GAOFEN 03D49    
1 54694U 22167N   26191.30329906  .00009065  00000+0  24498-3 0  9996
2 54694  97.6822   2.4747 0006351  63.7602 296.4294 15.37965130199046
JILIN-1 GAOFEN 03D48    
1 54695U 22167P   26191.33430586  .00007980  00000+0  23200-3 0  9991
2 54695  97.6892   1.8456 0006849  45.7761 314.4043 15.35725245198942
JILIN GAOFEN OBJECT A   
1 68691U 26080A   26187.77966256  .00003644  00000+0  23333-3 0  9991
2 68691  97.6601 263.2709 0011906   4.6722 355.4615 15.09144054 12610
JILIN GAOFEN OBJECT B   
1 68692U 26080B   26191.27544829  .00003443  00000+0  22088-3 0  9993
2 68692  97.6594 266.7769 0015152 331.4107  28.6289 15.09079755 13141
JILIN GAOFEN OBJECT C   
1 68693U 26080C   26190.82829969  .00004159  00000+0  26568-3 0  9997
2 68693  97.6596 266.2999 0012534 334.3790  25.6816 15.09149988 13076
JILIN GAOFEN OBJECT D   
1 68694U 26080D   26191.27583086  .00003315  00000+0  21359-3 0  9991
2 68694  97.6659 266.8479 0016836 343.3981  16.6694 15.08935513 13123
JILIN GAOFEN OBJECT E   
1 68695U 26080E   26191.25843334  .00002935  00000+0  18828-3 0  9999
2 68695  97.6637 266.8502 0012858 355.4872   4.6238 15.09227375 13100
JILIN GAOFEN OBJECT F   
1 68696U 26080F   26191.25733645  .00002883  00000+0  18515-3 0  9998
2 68696  97.6608 266.8197 0013985   1.1290 358.9968 15.09191587 13100
JILIN GAOFEN OBJECT G   
1 68697U 26080G   26191.30970451  .00003254  00000+0  20856-3 0  9997
2 68697  97.6650 266.9533 0013844 353.4106   6.6938 15.09174287 13119
JILIN GAOFEN OBJECT H   
1 68698U 26080H   26190.77698964  .00003937  00000+0  25189-3 0  9996
2 68698  97.6641 266.4127 0014684 356.7299   3.3831 15.09098681 13036
